[{"OBJECT_NAME":"STARLINK-2122","OBJECT_ID":"2021-005BD","EPOCH":"2026-03-09T03:55:52.124736","MEAN_MOTION":15.30221389,"ECCENTRICITY":0.00013494,"INCLINATION":53.161,"RA_OF_ASC_NODE":15.9494,"ARG_OF_PERICENTER":87.1367,"MEAN_ANOMALY":272.9788,"EPHEMERIS_TYPE":0,"CLASSIFICATION_TYPE":"U","NORAD_CAT_ID":47400,"ELEMENT_SET_NO":999,"REV_AT_EPOCH":28364,"BSTAR":0.00039300475,"MEAN_MOTION_DOT":0.00011306,"MEAN_MOTION_DDOT":0},{"OBJECT_NAME":"LYNK TOWER 5","OBJECT_ID":"2024-043Z","EPOCH":"2026-03-09T22:11:51.175104","MEAN_MOTION":15.29454506,"ECCENTRICITY":0.00104056,"INCLINATION":97.5458,"RA_OF_ASC_NODE":204.7305,"ARG_OF_PERICENTER":234.6422,"MEAN_ANOMALY":125.3846,"EPHEMERIS_TYPE":0,"CLASSIFICATION_TYPE":"U","NORAD_CAT_ID":59121,"ELEMENT_SET_NO":999,"REV_AT_EPOCH":11186,"BSTAR":0.00031901545,"MEAN_MOTION_DOT":9.048e-5,"MEAN_MOTION_DDOT":0}]
